[{"OBJECT_NAME":"OBJECT K","OBJECT_ID":"2024-205K","EPOCH":"2026-03-09T22:22:01.331040","MEAN_MOTION":15.27932792,"ECCENTRICITY":0.00106729,"INCLINATION":97.417,"RA_OF_ASC_NODE":146.2172,"ARG_OF_PERICENTER":37.4736,"MEAN_ANOMALY":322.7246,"EPHEMERIS_TYPE":0,"CLASSIFICATION_TYPE":"U","NORAD_CAT_ID":61903,"ELEMENT_SET_NO":999,"REV_AT_EPOCH":7347,"BSTAR":0.00067315144,"MEAN_MOTION_DOT":0.00018331,"MEAN_MOTION_DDOT":0},{"OBJECT_NAME":"STARLINK-34561","OBJECT_ID":"2025-167D","EPOCH":"2026-03-09T06:35:10.352832","MEAN_MOTION":15.30202692,"ECCENTRICITY":0.00012005,"INCLINATION":53.1613,"RA_OF_ASC_NODE":25.9812,"ARG_OF_PERICENTER":83.3897,"MEAN_ANOMALY":276.724,"EPHEMERIS_TYPE":0,"CLASSIFICATION_TYPE":"U","NORAD_CAT_ID":65081,"ELEMENT_SET_NO":999,"REV_AT_EPOCH":3470,"BSTAR":0.0011595411,"MEAN_MOTION_DOT":0.00034144,"MEAN_MOTION_DDOT":0}]
